#aV2005  1 19  0  0   .00000000      96 DD+AD WGS84 FIT  NGA
## 1306 259200.00000000   900.00000000 53389  .0000000000000
+   29     1  2  3  4  5  6  7  8  9 10 11 13 14 15 16 17 18
+         19 20 21 22 23 24 25 26 27 28 29 30  0  0  0  0  0
+          0  0  0  0  0  0  0  0  0  0  0  0  0  0  0  0  0
+          0  0  0  0  0  0  0  0  0  0  0  0  0  0  0  0  0
+          0  0  0  0  0  0  0  0  0  0  0  0  0  0  0  0  0
++         0  0  0  0  0  0  0  0  0  0  0  0  0  0  0  0  0
++         0  0  0  0  0  0  0  0  0  0  0  0  0  0  0  0  0
++         0  0  0  0  0  0  0  0  0  0  0  0  0  0  0  0  0
++         0  0  0  0  0  0  0  0  0  0  0  0  0  0  0  0  0
++         0  0  0  0  0  0  0  0  0  0  0  0  0  0  0  0  0
%c cc cc ccc ccc cccc cccc cccc cccc ccccc ccccc ccccc ccccc
%c cc cc ccc ccc cccc cccc cccc cccc ccccc ccccc ccccc ccccc
%f  0.0000000  0.000000000  0.00000000000  0.000000000000000
%f  0.0000000  0.000000000  0.00000000000  0.000000000000000
%i    0    0    0    0      0      0      0      0         0
%i    0    0    0    0      0      0      0      0         0
/*      NGA, ST. LOUIS,MO.                                  
/*   EPHEMERIS COMPUTED FROM  3 DAYS OF DATA                
/* CCCCCCCCCCCCCCCCCCCCCCCCCCCCCCCCCCCCCCCCCCCCCCCCCCCCCCCCC
/* CCCCCCCCCCCCCCCCCCCCCCCCCCCCCCCCCCCCCCCCCCCCCCCCCCCCCCCCC
*  2005  1 19 19 45   .00000000                                                 
P  1   1464.825512  14805.999952  22192.366980    383.773978                    
V  1 -27164.530777   5171.406452  -1695.863458       .019676                    
P  2 -12370.797589 -21965.297947   8188.590707    -42.754757                    
V  2   9318.886332   6096.463305  29265.577971       .057362                    
P  3   8565.519473  13911.411038 -21093.386469     78.013750                    
V  3 -25263.847793   8351.497762  -4514.156050       .030236                    
P  4   -139.707872 -19358.576979  18030.403674    442.019897                    
V  4  16628.696521  16048.051779  17692.146058      -.206628                    
P  5 -14729.136085  -5636.730395  21222.289882     73.108945                    
V  5   6345.107624 -26658.515891  -2489.094264       .024134                    
P  6 -25801.632239   6548.998277    -34.421963   -165.786163                    
V  6  -1131.649043  -3382.163239  31088.662728       .882178                    
P  7  14215.358271 -16161.326335  15879.588108     63.784509                    
V  7  19471.948569  -2987.738568 -21172.916646      -.302621                    
P  8  10603.461251 -10868.285056 -21955.554147    -19.024292                    
V  8  18092.600528  20644.989825  -1845.253090      -.011606                    
P  9 -21339.186929 -14015.090641   7459.363430    -24.814858                    
V  9  -5183.952682  -8990.140674 -29470.624898      -.017834                    
P 10  -3418.036687 -21630.855451 -14873.372521     57.504623                    
V 10   7633.343769 -17350.423309  23854.214493       .007066                    
P 11  22762.869815  11567.099407   7631.314390    186.442458                    
V 11   4735.316700   9487.783113 -28224.155102       .036863                    
P 13  25889.297214  -5751.690072   -401.543088    -13.826291                    
V 13    857.235691   1923.283618  32352.272610       .009678                    
P 14 -14997.196517  14592.698466  16404.357956    -31.484717                    
V 14 -20507.452751   3074.071423 -21574.352933      -.000686                    
P 15  -3772.679876  17404.991643 -19812.515711    377.806949                    
V 15 -16393.266830 -18653.413899 -13693.570343       .052859                    
P 16  -1003.836176  24823.864009  -9260.116370      1.992110                    
V 16  -6023.000404  10558.644544  28766.330644      -.001548                    
P 17 -16359.170939 -21421.557435   -951.446633    -93.374807                    
V 17    773.243416  -2382.306896  31330.715725       .190302                    
P 18 -16342.377813  14220.376168 -15136.331314   -118.886653                    
V 18   4562.550652 -19003.875303 -22935.756227      -.037284                    
P 19  18050.215463   9127.051456 -17100.149440    -11.860208                    
V 19 -21317.134474   5421.057149 -19525.772292      -.008512                    
P 20  14501.493977   4370.972324  21747.317388    -90.913492                    
V 20  -8045.251414  26589.494461     36.757282       .027138                    
P 21 -15830.340535   4451.760423 -20943.758982     87.990713                    
V 21 -16654.217891 -20655.874241   7756.487697       .010927                    
P 22 -12584.017724  22695.516944  -5551.905362     16.252609                    
V 22    -58.211278  -7761.652916 -30669.463886       .002304                    
P 23  24997.233381    736.402118   9015.998879    211.474385                    
V 23 -10711.773582   4948.058029  28888.069034       .005986                    
P 24   2535.004330 -18027.180119  19551.610219     89.408540                    
V 24  16482.296856  17875.952763  14683.531873       .029073                    
P 25   3094.745381  19942.545541  17636.602842     84.309758                    
V 25 -17263.199149 -13263.303223  18463.603065       .007389                    
P 26 -17573.763992  -8828.333230 -18442.312602    316.891257                    
V 26  21880.569314  -5338.593599 -18018.372290       .055850                    
P 27  16303.154301  -4160.523020 -20120.844091    513.343641                    
V 27  18557.516338  19181.480350  10346.709973       .063487                    
P 28  12149.317138 -22407.041082  -6610.792800     46.477967                    
V 28    191.229472   9270.972809 -30410.988535       .000726                    
P 29 -13137.843273 -10705.780240 -20225.099483    179.178995                    
V 29  25235.015957  -7013.010822 -12379.058133      -.189471                    
P 30 -16473.390550   6721.891403  19437.132660    444.514433                    
V 30   5262.442898 -24809.960260  12983.814291      -.143254                    
EOF
